     2.100          NAVIGATION                              RINEX VERSION / TYPE
fic2rin                                 02/11/2018 00:10:19 PGM / RUN BY / DATE
                                                            END OF HEADER
16 18  2 11  0  0  0.0  .324896536767D-04 -.795807864051D-12  .000000000000D+00
     .740000000000D+02  .833125000000D+02  .400588114674D-08  .217413180584D+01
     .429898500443D-05  .985368434340D-02  .606849789619D-05  .515358581161D+04
     .000000000000D+00 -.270083546638D-06 -.288619243617D+01  .223517417908D-07
     .988212893685D+00  .279375000000D+03  .465524843595D+00 -.783354058412D-08
     .151792037033D-09  .100000000000D+01  .198800000000D+04  .000000000000D+00
     .240000000000D+01  .000000000000D+00 -.107102096081D-07  .740000000000D+02
     .597606000000D+06  .400000000000D+01
17 18  2 11  0  0  0.0 -.124173704535D-03  .295585778076D-11  .000000000000D+00
     .530000000000D+02 -.451562500000D+02  .427767818247D-08  .115731323147D+01
    -.252760946751D-05  .123615683988D-01  .404380261898D-05  .515375829506D+04
     .000000000000D+00 -.270083546638D-06 -.187049425517D+01 -.670552253723D-07
     .981762928835D+00  .317437500000D+03 -.179329609592D+01 -.826784438891D-08
    -.216794744657D-09  .100000000000D+01  .198800000000D+04  .000000000000D+00
     .240000000000D+01  .000000000000D+00 -.111758708954D-07  .530000000000D+02
     .597606000000D+06  .400000000000D+01
19 18  2 11  0  0  0.0 -.457905698568D-03  .250111042988D-11  .000000000000D+00
     .630000000000D+02 -.581875000000D+02  .421981862953D-08 -.210553972740D+01
    -.294670462608D-05  .971983349882D-02  .347197055817D-05  .515370146561D+04
     .000000000000D+00  .115483999252D-06 -.182324450573D+01  .409781932831D-07
     .979192979684D+00  .319500000000D+03  .112277212495D+01 -.800497629654D-08
    -.101075638777D-09  .100000000000D+01  .198800000000D+04  .000000000000D+00
     .240000000000D+01  .000000000000D+00 -.153668224812D-07  .630000000000D+02
     .597606000000D+06  .400000000000D+01
20 18  2 11  0  0  0.0  .500587746501D-03  .909494701773D-12  .000000000000D+00
     .550000000000D+02 -.618750000000D+01  .519128766654D-08  .854620108529D-01
    -.249594449997D-06  .447020237334D-02  .865943729877D-05  .515378049278D+04
     .000000000000D+00 -.856816768646D-07  .696702329706D-01 -.109896063805D-06
     .928332060848D+00  .198593750000D+03  .178788371450D+01 -.830177437365D-08
     .392873507616D-09  .100000000000D+01  .198800000000D+04  .000000000000D+00
     .240000000000D+01  .000000000000D+00 -.838190317154D-08  .550000000000D+02
     .597606000000D+06  .400000000000D+01
21 18  2 11  0  0  0.0 -.431824009866D-03  .432009983342D-11  .000000000000D+00
     .180000000000D+02 -.995937500000D+02  .446054294237D-08 -.266680414751D+01
    -.509992241859D-05  .244130018400D-01  .820681452751D-05  .515377402687D+04
     .000000000000D+00  .288709998131D-06 -.918108851376D+00  .111758708954D-06
     .942697925164D+00  .203718750000D+03 -.159640147472D+01 -.764960435101D-08
     .482162941165D-10  .100000000000D+01  .198800000000D+04  .000000000000D+00
     .240000000000D+01  .000000000000D+00 -.102445483208D-07  .180000000000D+02
     .597606000000D+06  .400000000000D+01
22 18  2 11  0  0  0.0 -.287344679236D-03 -.129602995003D-10  .000000000000D+00
     .160000000000D+02  .459375000000D+01  .535058001599D-08  .593198840678D+00
     .283122062683D-06  .727453769650D-02  .871904194355D-05  .515359336662D+04
     .000000000000D+00 -.115483999252D-06  .119989841396D+00 -.670552253723D-07
     .925027665378D+00  .196312500000D+03 -.161563862510D+01 -.848999649958D-08
     .312513017422D-09  .100000000000D+01  .198800000000D+04  .000000000000D+00
     .240000000000D+01  .000000000000D+00 -.176951289177D-07  .160000000000D+02
     .597606000000D+06  .400000000000D+01
23 18  2 11  0  0  0.0 -.218978151679D-03  .113686837722D-12  .000000000000D+00
     .380000000000D+02 -.212500000000D+01  .522914638636D-08 -.942559010852D-01
     .745058059692D-08  .119685647078D-01  .613741576672D-05  .515359160805D+04
     .000000000000D+00  .111758708954D-07  .120937084948D+01  .178813934326D-06
     .943411137226D+00  .253250000000D+03 -.239762968448D+01 -.853821279369D-08
    -.864321716755D-10  .100000000000D+01  .198800000000D+04  .000000000000D+00
     .240000000000D+01  .000000000000D+00 -.200234353542D-07  .380000000000D+02
     .597606000000D+06  .400000000000D+01
24 18  2 11  0  0  0.0 -.458979047835D-04 -.454747350886D-12  .000000000000D+00
     .510000000000D+02  .354687500000D+02  .492449083910D-08 -.680843029376D+00
     .187754631042D-05  .680013350211D-02  .973045825958D-05  .515365925980D+04
     .000000000000D+00  .106170773506D-06  .223050549154D+01  .484287738800D-07
     .942535817749D+00  .182218750000D+03  .521727822847D+00 -.818962684512D-08
    -.286797660559D-09  .100000000000D+01  .198800000000D+04  .000000000000D+00
     .240000000000D+01  .000000000000D+00  .279396772385D-08  .510000000000D+02
     .597606000000D+06  .400000000000D+01
25 18  2 11  0  0  0.0 -.536746345460D-03 -.613908923697D-11  .000000000000D+00
     .150000000000D+02  .899375000000D+02  .423446209663D-08 -.264383667014D+01
     .458024442196D-05  .715865008533D-02  .617280602455D-05  .515369073677D+04
     .000000000000D+00  .782310962677D-07 -.296349667600D+01 -.165775418282D-06
     .975505628834D+00  .266906250000D+03  .809148538936D+00 -.796033157976D-08
     .215008955986D-09  .100000000000D+01  .198800000000D+04  .000000000000D+00
     .240000000000D+01  .000000000000D+00  .558793544769D-08  .150000000000D+02
     .597606000000D+06  .400000000000D+01
26 18  2 11  0  0  0.0 -.255012419075D-03  .136424205266D-10  .000000000000D+00
     .100000000000D+02  .899062500000D+02  .468448084172D-08  .313908800764D+01
     .471994280815D-05  .267171219457D-02  .637210905552D-05  .515361091614D+04
     .000000000000D+00 -.111758708954D-06 -.298353532555D+01  .558793544769D-08
     .957105549939D+00  .255562500000D+03  .117349597567D-01 -.814426781287D-08
     .145720355552D-09  .100000000000D+01  .198800000000D+04  .000000000000D+00
     .240000000000D+01  .000000000000D+00  .745058059692D-08  .100000000000D+02
     .597606000000D+06  .400000000000D+01
27 18  2 11  0  0  0.0  .366635620594D-03  .136424205266D-11  .000000000000D+00
     .940000000000D+02 -.311875000000D+02  .439839749662D-08  .131764852338D+01
    -.145472586155D-05  .547508150339D-02  .293366611004D-05  .515367956352D+04
     .000000000000D+00  .353902578354D-07 -.192396835970D+01  .670552253723D-07
     .976564747876D+00  .330281250000D+03  .354825450716D+00 -.825034365993D-08
    -.182864759908D-09  .100000000000D+01  .198800000000D+04  .000000000000D+00
     .240000000000D+01  .000000000000D+00  .186264514923D-08  .940000000000D+02
     .597606000000D+06  .400000000000D+01
28 18  2 11  0  0  0.0  .687674619257D-03  .318323145621D-11  .000000000000D+00
     .940000000000D+02  .766875000000D+02  .391659171319D-08  .213399063428D+01
     .376254320145D-05  .197531175800D-01  .484287738800D-05  .515367349625D+04
     .000000000000D+00  .322237610817D-06 -.288187117074D+01 -.149011611938D-06
     .987062267654D+00  .293937500000D+03 -.152646313861D+01 -.758388732792D-08
     .603596570791D-10  .100000000000D+01  .198800000000D+04  .000000000000D+00
     .240000000000D+01  .000000000000D+00 -.111758708954D-07  .940000000000D+02
     .597606000000D+06  .400000000000D+01
29 18  2 11  0  0  0.0  .498228706419D-03 -.568434188608D-11  .000000000000D+00
     .980000000000D+02 -.468125000000D+02  .415303013323D-08  .265679290316D+01
    -.256486237049D-05  .494934036396D-03  .318326056004D-05  .515374009514D+04
     .000000000000D+00 -.204890966415D-07 -.186002949305D+01  .149011611938D-07
     .982991589842D+00  .327468750000D+03  .752847103835D+00 -.810855203945D-08
    -.202865593023D-09  .100000000000D+01  .198800000000D+04  .000000000000D+00
     .340000000000D+01  .000000000000D+00 -.102445483208D-07  .980000000000D+02
     .597606000000D+06  .400000000000D+01
30 18  2 11  0  0  0.0  .104689504951D-03 -.341060513165D-11  .000000000000D+00
     .520000000000D+02  .433437500000D+02  .479484258158D-08 -.144840894553D+01
     .205636024475D-05  .307607301511D-02  .921823084354D-05  .515357335091D+04
     .000000000000D+00  .260770320892D-07  .232354750709D+01 -.298023223877D-07
     .945191552416D+00  .193906250000D+03 -.311476990431D+01 -.805997858760D-08
    -.183936233111D-09  .100000000000D+01  .198800000000D+04  .000000000000D+00
     .240000000000D+01  .000000000000D+00  .372529029846D-08  .520000000000D+02
     .597606000000D+06  .400000000000D+01
31 18  2 11  0  0  0.0  .142598990351D-03 -.261479726760D-11  .000000000000D+00
     .880000000000D+02  .319687500000D+02  .441518391013D-08 -.181969304680D+01
     .143051147461D-05  .884163950104D-02  .101625919342D-04  .515361016273D+04
     .000000000000D+00 -.614672899246D-07  .230046908201D+01 -.162050127983D-06
     .964215856992D+00  .187937500000D+03 -.156460883578D+00 -.789711466081D-08
    -.160720980388D-09  .100000000000D+01  .198800000000D+04  .000000000000D+00
     .340000000000D+01  .000000000000D+00 -.135041773319D-07  .880000000000D+02
     .597606000000D+06  .400000000000D+01
32 18  2 11  0  0  0.0 -.532478559762D-03  .795807864051D-12  .000000000000D+00
     .940000000000D+02 -.368750000000D+01  .486984570576D-08  .205872377559D+01
    -.111758708954D-06  .166613864712D-02  .601075589657D-05  .515362768745D+04
     .000000000000D+00 -.745058059692D-07  .121446586985D+01  .931322574615D-08
     .956983571830D+00  .257593750000D+03 -.269324127889D+01 -.818534095231D-08
    -.632169189527D-10  .100000000000D+01  .198800000000D+04  .000000000000D+00
     .340000000000D+01  .000000000000D+00  .465661287308D-09  .940000000000D+02
     .597606000000D+06  .400000000000D+01
